{"type": "FeatureCollection", "features": [ {"type": "Feature", "properties": {"norad_id": 67021, "name": "STARLINK-36184", "group": "last-30-days", "lat": -33.9614539673604, "lon": 114.98301328390886, "alt_km": 366.8405363626507, "timestamp": "2025-12-27T15:27:09.833192+00:00", "meta": {"OBJECT_NAME": "STARLINK-36184", "OBJECT_ID": "2025-293U", "EPOCH": "2025-12-27T06:00:02.000160", "MEAN_MOTION": 15.70140715, "ECCENTRICITY": 0.00033091, "INCLINATION": 69.9978, "RA_OF_ASC_NODE": 281.8863, "ARG_OF_PERICENTER": 271.1594, "MEAN_ANOMALY": 240.7378, "EPHEMERIS_TYPE": 0, "CLASSIFICATION_TYPE": "U", "NORAD_CAT_ID": 67021, "ELEMENT_SET_NO": 999, "REV_AT_EPOCH": 255, "BSTAR": -0.015089407, "MEAN_MOTION_DOT": -0.01625939, "MEAN_MOTION_DDOT": 0}, "tle": {"line1": "1 67021U 25293U   25361.25002315 -.01625939  00000+0 -15089-1 0  9992", "line2": "2 67021  69.9978 281.8863 0003309 271.1594 240.7378 15.70140715  2550"}}, "geometry": {"type": "Point", "coordinates": [114.98301328390886, -33.9614539673604]}}, {"type": "Feature", "properties": {"norad_id": 67022, "name": "STARLINK-36209", "group": "last-30-days", "lat": -36.20569874529737, "lon": 116.24356471088804, "alt_km": 366.96246233120564, "timestamp": "2025-12-27T15:27:09.833205+00:00", "meta": {"OBJECT_NAME": "STARLINK-36209", "OBJECT_ID": "2025-293V", "EPOCH": "2025-12-27T06:00:02.000160", "MEAN_MOTION": 15.7010656, "ECCENTRICITY": 0.00033252, "INCLINATION": 69.9974, "RA_OF_ASC_NODE": 281.8831, "ARG_OF_PERICENTER": 270.7083, "MEAN_ANOMALY": 243.71, "EPHEMERIS_TYPE": 0, "CLASSIFICATION_TYPE": "U", "NORAD_CAT_ID": 67022, "ELEMENT_SET_NO": 999, "REV_AT_EPOCH": 255, "BSTAR": -0.015106024, "MEAN_MOTION_DOT": -0.01625476, "MEAN_MOTION_DDOT": 0}, "tle": {"line1": "1 67022U 25293V   25361.25002315 -.01625476  00000+0 -15106-1 0  9999", "line2": "2 67022  69.9974 281.8831 0003325 270.7083 243.7100 15.70106560  2554"}}, "geometry": {"type": "Point", "coordinates": [116.24356471088804, -36.20569874529737]}}, {"type": "Feature", "properties": {"norad_id": 67023, "name": "STARLINK-36191", "group": "last-30-days", "lat": -38.216122604695855, "lon": 117.44205913890714, "alt_km": 366.93890446886144, "timestamp": "2025-12-27T15:27:09.833217+00:00", "meta": {"OBJECT_NAME": "STARLINK-36191", "OBJECT_ID": "2025-293W", "EPOCH": "2025-12-27T06:00:02.000160", "MEAN_MOTION": 15.70087148, "ECCENTRICITY": 0.00034667, "INCLINATION": 69.9975, "RA_OF_ASC_NODE": 281.8797, "ARG_OF_PERICENTER": 269.1679, "MEAN_ANOMALY": 247.5068, "EPHEMERIS_TYPE": 0, "CLASSIFICATION_TYPE": "U", "NORAD_CAT_ID": 67023, "ELEMENT_SET_NO": 999, "REV_AT_EPOCH": 244, "BSTAR": -0.015114013, "MEAN_MOTION_DOT": -0.01625179, "MEAN_MOTION_DDOT": 0}, "tle": {"line1": "1 67023U 25293W   25361.25002315 -.01625179  00000+0 -15114-1 0  9999", "line2": "2 67023  69.9975 281.8797 0003466 269.1679 247.5068 15.70087148  2449"}}, "geometry": {"type": "Point", "coordinates": [117.44205913890714, -38.216122604695855]}}, {"type": "Feature", "properties": {"norad_id": 67024, "name": "STARLINK-36192", "group": "last-30-days", "lat": -40.34478463912589, "lon": 118.79608369476003, "alt_km": 367.1569139293806, "timestamp": "2025-12-27T15:27:09.833230+00:00", "meta": {"OBJECT_NAME": "STARLINK-36192", "OBJECT_ID": "2025-293X", "EPOCH": "2025-12-27T06:00:02.000160", "MEAN_MOTION": 15.70057204, "ECCENTRICITY": 0.0003334, "INCLINATION": 69.9977, "RA_OF_ASC_NODE": 281.8775, "ARG_OF_PERICENTER": 270.6269, "MEAN_ANOMALY": 248.4641, "EPHEMERIS_TYPE": 0, "CLASSIFICATION_TYPE": "U", "NORAD_CAT_ID": 67024, "ELEMENT_SET_NO": 999, "REV_AT_EPOCH": 255, "BSTAR": -0.015113147, "MEAN_MOTION_DOT": -0.0162318, "MEAN_MOTION_DDOT": 0}, "tle": {"line1": "1 67024U 25293X   25361.25002315 -.01623180  00000+0 -15113-1 0  9999", "line2": "2 67024  69.9977 281.8775 0003334 270.6269 248.4641 15.70057204  2553"}}, "geometry": {"type": "Point", "coordinates": [118.79608369476003, -40.34478463912589]}}, {"type": "Feature", "properties": {"norad_id": 67025, "name": "STARLINK-36178", "group": "last-30-days", "lat": -42.24682831815567, "lon": 120.08941696581239, "alt_km": 367.25475427501806, "timestamp": "2025-12-27T15:27:09.833240+00:00", "meta": {"OBJECT_NAME": "STARLINK-36178", "OBJECT_ID": "2025-293Y", "EPOCH": "2025-12-27T06:00:02.000160", "MEAN_MOTION": 15.70044071, "ECCENTRICITY": 0.00032823, "INCLINATION": 69.9975, "RA_OF_ASC_NODE": 281.8745, "ARG_OF_PERICENTER": 270.9764, "MEAN_ANOMALY": 250.2725, "EPHEMERIS_TYPE": 0, "CLASSIFICATION_TYPE": "U", "NORAD_CAT_ID": 67025, "ELEMENT_SET_NO": 999, "REV_AT_EPOCH": 255, "BSTAR": -0.015130456, "MEAN_MOTION_DOT": -0.01623997, "MEAN_MOTION_DDOT": 0}, "tle": {"line1": "1 67025U 25293Y   25361.25002315 -.01623997  00000+0 -15130-1 0  9995", "line2": "2 67025  69.9975 281.8745 0003282 270.9764 250.2725 15.70044071  2556"}}, "geometry": {"type": "Point", "coordinates": [120.08941696581239, -42.24682831815567]}}, {"type": "Feature", "properties": {"norad_id": 67026, "name": "STARLINK-36176", "group": "last-30-days", "lat": -46.18222940533116, "lon": 123.07494529594197, "alt_km": 367.39133940714055, "timestamp": "2025-12-27T15:27:09.833250+00:00", "meta": {"OBJECT_NAME": "STARLINK-36176", "OBJECT_ID": "2025-293Z", "EPOCH": "2025-12-27T06:00:02.000160", "MEAN_MOTION": 15.70001851, "ECCENTRICITY": 0.00033029, "INCLINATION": 69.9974, "RA_OF_ASC_NODE": 281.8694, "ARG_OF_PERICENTER": 270.8151, "MEAN_ANOMALY": 254.9785, "EPHEMERIS_TYPE": 0, "CLASSIFICATION_TYPE": "U", "NORAD_CAT_ID": 67026, "ELEMENT_SET_NO": 999, "REV_AT_EPOCH": 255, "BSTAR": -0.015146544, "MEAN_MOTION_DOT": -0.01622998, "MEAN_MOTION_DDOT": 0}, "tle": {"line1": "1 67026U 25293Z   25361.25002315 -.01622998  00000+0 -15147-1 0  9994", "line2": "2 67026  69.9974 281.8694 0003302 270.8151 254.9785 15.70001851  2557"}}, "geometry": {"type": "Point", "coordinates": [123.07494529594197, -46.18222940533116]}}, {"type": "Feature", "properties": {"norad_id": 67027, "name": "STARLINK-36171", "group": "last-30-days", "lat": -44.37302514652619, "lon": 121.64552709582576, "alt_km": 367.32346647509166, "timestamp": "2025-12-27T15:27:09.833261+00:00", "meta": {"OBJECT_NAME": "STARLINK-36171", "OBJECT_ID": "2025-293AA", "EPOCH": "2025-12-27T06:00:02.000160", "MEAN_MOTION": 15.70014848, "ECCENTRICITY": 0.00032769, "INCLINATION": 69.9971, "RA_OF_ASC_NODE": 281.8717, "ARG_OF_PERICENTER": 269.3951, "MEAN_ANOMALY": 254.3077, "EPHEMERIS_TYPE": 0, "CLASSIFICATION_TYPE": "U", "NORAD_CAT_ID": 67027, "ELEMENT_SET_NO": 999, "REV_AT_EPOCH": 255, "BSTAR": -0.015164367, "MEAN_MOTION_DOT": -0.0162546, "MEAN_MOTION_DDOT": 0}, "tle": {"line1": "1 67027U 25293AA  25361.25002315 -.01625460  00000+0 -15164-1 0  9991", "line2": "2 67027  69.9971 281.8717 0003276 269.3951 254.3077 15.70014848  2550"}}, "geometry": {"type": "Point", "coordinates": [121.64552709582576, -44.37302514652619]}}, {"type": "Feature", "properties": {"norad_id": 67028, "name": "STARLINK-36132", "group": "last-30-days", "lat": -50.044604361804836, "lon": 126.5326781461804, "alt_km": 367.46881185614166, "timestamp": "2025-12-27T15:27:09.833273+00:00", "meta": {"OBJECT_NAME": "STARLINK-36132", "OBJECT_ID": "2025-293AB", "EPOCH": "2025-12-27T06:00:02.000160", "MEAN_MOTION": 15.69962988, "ECCENTRICITY": 0.00034253, "INCLINATION": 69.9974, "RA_OF_ASC_NODE": 281.8641, "ARG_OF_PERICENTER": 271.2018, "MEAN_ANOMALY": 259.1564, "EPHEMERIS_TYPE": 0, "CLASSIFICATION_TYPE": "U", "NORAD_CAT_ID": 67028, "ELEMENT_SET_NO": 999, "REV_AT_EPOCH": 255, "BSTAR": -0.015211569, "MEAN_MOTION_DOT": -0.01626933, "MEAN_MOTION_DDOT": 0}, "tle": {"line1": "1 67028U 25293AB  25361.25002315 -.01626933  00000+0 -15212-1 0  9992", "line2": "2 67028  69.9974 281.8641 0003425 271.2018 259.1564 15.69962988  2551"}}, "geometry": {"type": "Point", "coordinates": [126.5326781461804, -50.044604361804836]}}, {"type": "Feature", "properties": {"norad_id": 67029, "name": "STARLINK-36190", "group": "last-30-days", "lat": -48.02136519617104, "lon": 124.64532860457982, "alt_km": 367.37876823696934, "timestamp": "2025-12-27T15:27:09.833286+00:00", "meta": {"OBJECT_NAME": "STARLINK-36190", "OBJECT_ID": "2025-293AC", "EPOCH": "2025-12-27T06:00:02.000160", "MEAN_MOTION": 15.69991106, "ECCENTRICITY": 0.00033662, "INCLINATION": 69.9975, "RA_OF_ASC_NODE": 281.8673, "ARG_OF_PERICENTER": 269.8168, "MEAN_ANOMALY": 258.1242, "EPHEMERIS_TYPE": 0, "CLASSIFICATION_TYPE": "U", "NORAD_CAT_ID": 67029, "ELEMENT_SET_NO": 999, "REV_AT_EPOCH": 255, "BSTAR": -0.015182736, "MEAN_MOTION_DOT": -0.01625844, "MEAN_MOTION_DDOT": 0}, "tle": {"line1": "1 67029U 25293AC  25361.25002315 -.01625844  00000+0 -15183-1 0  9990", "line2": "2 67029  69.9975 281.8673 0003366 269.8168 258.1242 15.69991106  2557"}}, "geometry": {"type": "Point", "coordinates": [124.64532860457982, -48.02136519617104]}}, {"type": "Feature", "properties": {"norad_id": 67030, "name": "STARLINK-36138", "group": "last-30-days", "lat": 40.329500260825924, "lon": -154.27406772123953, "alt_km": 379.4575442059113, "timestamp": "2025-12-27T15:27:09.833296+00:00", "meta": {"OBJECT_NAME": "STARLINK-36138", "OBJECT_ID": "2025-294A", "EPOCH": "2025-12-27T06:00:02.000160", "MEAN_MOTION": 15.62648819, "ECCENTRICITY": 0.00015597, "INCLINATION": 42.9996, "RA_OF_ASC_NODE": 93.7208, "ARG_OF_PERICENTER": 275.7829, "MEAN_ANOMALY": 135.4358, "EPHEMERIS_TYPE": 0, "CLASSIFICATION_TYPE": "U", "NORAD_CAT_ID": 67030, "ELEMENT_SET_NO": 999, "REV_AT_EPOCH": 243, "BSTAR": -0.02320906, "MEAN_MOTION_DOT": -0.01891608, "MEAN_MOTION_DDOT": 0}, "tle": {"line1": "1 67030U 25294A   25361.25002315 -.01891608  00000+0 -23209-1 0  9994", "line2": "2 67030  42.9996  93.7208 0001559 275.7829 135.4358 15.62648819  2434"}}, "geometry": {"type": "Point", "coordinates": [-154.27406772123953, 40.329500260825924]}}]}